HIMAWARI-8              
1 40267U 14060A   24026.57622993 -.00000274  00000+0  00000+0 0  9999
2 40267   0.0491 240.7081 0000939  60.8534 171.8616  1.00270096 34017
